0 COSMOS 2251 DEB
1 35839U 93036ATM 13283.19273299  .00002436  00000-0  64009-3 0  4721
2 35839 074.2436 120.7312 0040078 204.3119 268.6810 14.49180921234875
0 COSMOS 2251 DEB
1 35839U 93036ATM 13287.19808047  .00003466  00000-0  90745-3 0  4742
2 35839 074.2437 113.3168 0040046 195.6645 284.8971 14.49195673235457
0 COSMOS 2251 DEB
1 35839U 93036ATM 13289.20029112  .00004258  00000-0  11127-2 0  4751
2 35839 074.2434 109.6093 0039997 191.3603 290.6983 14.49212777235744
0 COSMOS 2251 DEB
1 35839U 93036ATM 13291.46013212  .00004091  00000-0  10691-2 0  4767
2 35839 074.2445 105.4237 0039956 186.5797 200.6445 14.49229752236077
0 COSMOS 2251 DEB
1 35839U 93036ATM 13293.46271072  .00004774  00000-0  12460-2 0  4774
2 35839 074.2445 101.7167 0039873 182.2615 208.6155 14.49245165236362
0 COSMOS 2251 DEB
1 35839U 93036ATM 13296.17099689  .00005892  00000-0  15351-2 0  4782
2 35839 074.2453 096.7017 0039691 176.5589 298.4958 14.49268052236753
